NORAD_CAT_ID,OBJECT_NAME,OBJECT_TYPE,EPOCH,MEAN_MOTION,ECCENTRICITY,INCLINATION,RA_OF_ASC_NODE,ARG_OF_PERICENTER,MEAN_ANOMALY,BSTAR,MEAN_MOTION_DOT,MEAN_MOTION_DDOT,TLE_LINE0,TLE_LINE1,TLE_LINE2,SEMIMAJOR_AXIS,PERIOD,APOGEE,PERIGEE,DECAYED
50831.0,STARLINK-3299,PAYLOAD,2023-10-20 12:56:15,15.08840308,0.0001486,53.2148,119.9327,83.7624,276.3537,0.00016186,2.289e-05,0.0,0 STARLINK-3299,1 50831U 22001AE  23293.53907187  .00002289  00000-0  16186-3 0  9997,2 50831  53.2148 119.9327 0001486  83.7624 276.3537 15.08840308100161,6917.879,95.438,540.772,538.716,0.0
50831.0,STARLINK-3299,PAYLOAD,2023-10-20 16:07:02,15.08836954,0.0001388,53.2154,119.3388,79.9263,280.1886,8.1781e-05,1.014e-05,0.0,0 STARLINK-3299,1 50831U 22001AE  23293.67155325  .00001014  00000-0  81781-4 0  9990,2 50831  53.2154 119.3388 0001388  79.9263 280.1886 15.08836954 98917,6917.89,95.438,540.715,538.794,0.0
50831.0,STARLINK-3299,PAYLOAD,2023-10-21 12:47:00,15.08874579,6.13e-05,53.218,115.4734,36.9096,323.1939,0.00051829,7.978e-05,0.0,0 STARLINK-3299,1 50831U 22001AE  23294.53264697  .00007978  00000-0  51829-3 0  9993,2 50831  53.2180 115.4734 0000613  36.9096 323.1939 15.08874579100315,6917.775,95.435,540.064,539.216,0.0
50831.0,STARLINK-3299,PAYLOAD,2023-10-21 19:08:34,15.08832465,0.0001145,53.2178,114.2817,76.097,284.0149,-0.0001162,-2.136e-05,0.0,0 STARLINK-3299,1 50831U 22001AE  23294.79761999 -.00002136  00000-0 -11620-3 0  9996,2 50831  53.2178 114.2817 0001145  76.0970 284.0149 15.08832465100358,6917.903,95.438,540.561,538.976,0.0
50831.0,STARLINK-3299,PAYLOAD,2023-10-21 22:19:20,15.08831356,0.0001168,53.2174,113.6877,77.2591,282.8532,-0.00014737,-2.632e-05,0.0,0 STARLINK-3299,1 50831U 22001AE  23294.93010053 -.00002632  00000-0 -14737-3 0  9993,2 50831  53.2174 113.6877 0001168  77.2591 282.8532 15.08831356 99100,6917.907,95.438,540.58,538.964,0.0
50831.0,STARLINK-3299,PAYLOAD,2023-10-22 11:02:26,15.08820648,0.0001327,53.2153,111.3104,98.6303,261.484,-0.00024472,-4.178e-05,0.0,0 STARLINK-3299,1 50831U 22001AE  23295.46003467 -.00004178  00000-0 -24472-3 0  9997,2 50831  53.2153 111.3104 0001327  98.6303 261.4840 15.08820648100458,6917.94,95.439,540.723,538.887,0.0
50831.0,STARLINK-3299,PAYLOAD,2023-10-22 18:59:24,15.08816991,9.17e-05,53.2165,109.8249,89.1942,270.9155,-0.00014875,-2.653e-05,0.0,0 STARLINK-3299,1 50831U 22001AE  23295.79125079 -.00002653  00000-0 -14875-3 0  9999,2 50831  53.2165 109.8249 0000917  89.1942 270.9155 15.08816991100507,6917.951,95.439,540.45,539.181,0.0
50831.0,STARLINK-3299,PAYLOAD,2023-10-23 04:31:46,15.0876075,0.0001379,53.2172,108.0383,73.8582,286.2562,-0.00033555,-5.612e-05,0.0,0 STARLINK-3299,1 50831U 22001AE  23296.18873093 -.00005612  00000-0 -33555-3 0  9993,2 50831  53.2172 108.0383 0001379  73.8582 286.2562 15.08760750100567,6918.123,95.443,540.942,539.034,0.0
50831.0,STARLINK-3299,PAYLOAD,2023-10-23 12:28:38,15.08824057,0.0001333,53.2163,106.5521,87.6341,272.4804,0.00020871,3.034e-05,0.0,0 STARLINK-3299,1 50831U 22001AE  23296.51988524  .00003034  00000-0  20871-3 0  9997,2 50831  53.2163 106.5521 0001333  87.6341 272.4804 15.08824057100613,6917.929,95.439,540.716,538.872,0.0
50831.0,STARLINK-3299,PAYLOAD,2023-10-23 22:00:56,15.08829024,0.0001345,53.2169,104.7681,89.8515,270.2632,0.00022241,3.252e-05,0.0,0 STARLINK-3299,1 50831U 22001AE  23296.91732626  .00003252  00000-0  22241-3 0  9996,2 50831  53.2169 104.7681 0001345  89.8515 270.2632 15.08829024 99404,6917.914,95.438,540.709,538.848,0.0
50831.0,STARLINK-3299,PAYLOAD,2023-10-24 12:19:25,15.08832927,0.0001281,53.2171,102.0921,86.0513,274.0625,0.00034425,5.194e-05,0.0,0 STARLINK-3299,1 50831U 22001AE  23297.51348554  .00005194  00000-0  34425-3 0  9990,2 50831  53.2171 102.0921 0001281  86.0513 274.0625 15.08832927100763,6917.902,95.438,540.653,538.881,0.0
50831.0,STARLINK-3299,PAYLOAD,2023-10-24 13:54:48,15.08834272,0.0001288,53.2171,101.7947,85.9515,274.1624,0.00035178,5.314e-05,0.0,0 STARLINK-3299,1 50831U 22001AE  23297.57972525  .00005314  00000-0  35178-3 0  9997,2 50831  53.2171 101.7947 0001288  85.9515 274.1624 15.08834272 99508,6917.898,95.438,540.654,538.872,0.0
50831.0,STARLINK-3299,PAYLOAD,2023-10-25 13:45:36,15.08825603,0.0001853,53.2175,97.334,69.8185,290.3006,0.00062835,9.722e-05,0.0,0 STARLINK-3299,1 50831U 22001AE  23298.57333774  .00009722  00000-0  62835-3 0  9992,2 50831  53.2175  97.3340 0001853  69.8185 290.3006 15.08825603100922,6917.924,95.438,541.071,538.508,0.0
50831.0,STARLINK-3299,PAYLOAD,2023-10-25 21:42:30,15.08863171,0.0001356,53.2175,95.8472,87.7016,272.4132,0.00021127,3.078e-05,0.0,0 STARLINK-3299,1 50831U 22001AE  23298.90451680  .00003078  00000-0  21127-3 0  9993,2 50831  53.2175  95.8472 0001356  87.7016 272.4132 15.08863171 99707,6917.81,95.436,540.613,538.737,0.0
50831.0,STARLINK-3299,PAYLOAD,2023-10-26 04:04:03,15.08845813,0.0001146,53.2165,94.6576,92.232,267.8803,-5.6646e-05,-1.189e-05,0.0,0 STARLINK-3299,1 50831U 22001AE  23299.16948371 -.00001189  00000-0 -56646-4 0  9998,2 50831  53.2165  94.6576 0001146  92.2320 267.8803 15.08845813101018,6917.863,95.437,540.52,538.935,0.0
50831.0,STARLINK-3299,PAYLOAD,2023-10-26 13:36:21,15.08852333,0.000136,53.2163,92.8737,89.9254,270.1894,3.1783e-05,2.18e-06,0.0,0 STARLINK-3299,1 50831U 22001AE  23299.56691939  .00000218  00000-0  31783-4 0  9992,2 50831  53.2163  92.8737 0001360  89.9254 270.1894 15.08852333 99807,6917.843,95.437,540.649,538.767,0.0
50831.0,STARLINK-3299,PAYLOAD,2023-10-26 21:33:17,15.08858035,0.0001414,53.216,91.3866,87.6149,272.5005,0.0002453,3.62e-05,0.0,0 STARLINK-3299,1 50831U 22001AE  23299.89811419  .00003620  00000-0  24530-3 0  9996,2 50831  53.2160  91.3866 0001414  87.6149 272.5005 15.08858035 99859,6917.825,95.436,540.668,538.712,0.0
50831.0,STARLINK-3299,PAYLOAD,2023-10-27 03:54:49,15.08851694,0.0001396,53.216,90.1972,83.1171,276.998,0.00017749,2.539e-05,0.0,0 STARLINK-3299,1 50831U 22001AE  23300.16307498  .00002539  00000-0  17749-3 0  9998,2 50831  53.2160  90.1972 0001396  83.1171 276.9980 15.08851694101161,6917.845,95.437,540.675,538.744,0.0
50831.0,STARLINK-3299,PAYLOAD,2023-10-27 10:16:22,15.08852011,0.0001423,53.2163,89.0079,87.0959,273.0196,0.00016363,2.318e-05,0.0,0 STARLINK-3299,1 50831U 22001AE  23300.42803446  .00002318  00000-0  16363-3 0  9997,2 50831  53.2163  89.0079 0001423  87.0959 273.0196 15.08852011 99939,6917.844,95.437,540.693,538.724,0.0
50831.0,STARLINK-3299,PAYLOAD,2023-10-27 16:37:54,15.08855026,0.0001426,53.2164,87.8181,87.693,272.4225,0.00026865,3.992e-05,0.0,0 STARLINK-3299,1 50831U 22001AE  23300.69299129  .00003992  00000-0  26865-3 0  9990,2 50831  53.2164  87.8181 0001426  87.6930 272.4225 15.08855026 99977,6917.834,95.437,540.686,538.713,0.0
50831.0,STARLINK-3299,PAYLOAD,2023-10-28 10:07:09,15.08834936,0.0002873,53.2166,84.5473,289.2455,70.8226,0.0001589,2.241e-05,0.0,0 STARLINK-3299,1 50831U 22001AE  23301.42163918  .00002241  00000-0  15890-3 0  9990,2 50831  53.2166  84.5473 0002873 289.2455  70.8226 15.08834936101350,6917.896,95.438,541.748,537.773,0.0
50831.0,STARLINK-3299,PAYLOAD,2023-10-28 13:17:55,15.08832921,0.0001491,53.217,83.9524,85.989,274.1272,-8.5957e-05,-1.655e-05,0.0,0 STARLINK-3299,1 50831U 22001AE  23301.55412031 -.00001655  00000-0 -85957-4 0  9999,2 50831  53.2170  83.9524 0001491  85.9890 274.1272 15.08832921100108,6917.902,95.438,540.798,538.736,0.0
50831.0,STARLINK-3299,PAYLOAD,2023-10-28 16:28:42,15.08834187,0.0001337,53.2168,83.3575,77.6133,282.5009,-6.1419e-06,-3.86e-06,0.0,0 STARLINK-3299,1 50831U 22001AE  23301.68660192 -.00000386  00000-0 -61419-5 0  9994,2 50831  53.2168  83.3575 0001337  77.6133 282.5009 15.08834187101391,6917.898,95.438,540.688,538.838,0.0
50831.0,STARLINK-3299,PAYLOAD,2023-10-29 02:01:00,15.08845183,0.0001424,53.2172,81.5721,74.5429,285.572,0.00030135,4.512e-05,0.0,0 STARLINK-3299,1 50831U 22001AE  23302.08403922  .00004512  00000-0  30135-3 0  9997,2 50831  53.2172  81.5721 0001424  74.5429 285.5720 15.08845183101458,6917.865,95.437,540.715,538.744,0.0
50831.0,STARLINK-3299,PAYLOAD,2023-10-29 14:44:05,15.08869096,0.000142,53.2171,79.1935,69.3552,290.7592,0.0011625,0.00018276,0.0,0 STARLINK-3299,1 50831U 22001AE  23302.61395373  .00018276  00000-0  11625-2 0  9990,2 50831  53.2171  79.1935 0001420  69.3552 290.7592 15.08869096100264,6917.791,95.436,540.639,538.674,0.0
50831.0,STARLINK-3299,PAYLOAD,2023-10-29 16:19:28,15.08878067,0.0001387,53.2165,78.897,70.6795,289.4347,0.0015128,0.00023895,0.0,0 STARLINK-3299,1 50831U 22001AE  23302.68019174  .00023895  00000-0  15128-2 0  9994,2 50831  53.2165  78.8970 0001387  70.6795 289.4347 15.08878067101541,6917.764,95.435,540.589,538.67,0.0
50831.0,STARLINK-3299,PAYLOAD,2023-10-30 08:13:20,15.08852105,0.0001564,53.2166,75.9238,61.8347,298.2803,0.0011669,0.00018338,0.0,0 STARLINK-3299,1 50831U 22001AE  23303.34259556  .00018338  00000-0  11669-2 0  9990,2 50831  53.2166  75.9238 0001564  61.8347 298.2803 15.08852105101640,6917.843,95.437,540.79,538.626,0.0
50831.0,STARLINK-3299,PAYLOAD,2023-10-30 19:21:02,15.08841704,0.0001405,53.2167,73.8421,84.6042,275.511,0.00055017,8.479e-05,0.0,0 STARLINK-3299,1 50831U 22001AE  23303.80627605  .00008479  00000-0  55017-3 0  9996,2 50831  53.2167  73.8421 0001405  84.6042 275.5110 15.08841704101711,6917.875,95.437,540.712,538.768,0.0
50831.0,STARLINK-3299,PAYLOAD,2023-10-31 12:50:17,15.08831555,0.0001659,53.2172,70.5695,79.218,280.8999,0.00079568,0.00012395,0.0,0 STARLINK-3299,1 50831U 22001AE  23304.53492689  .00012395  00000-0  79568-3 0  9998,2 50831  53.2172  70.5695 0001659  79.2180 280.8999 15.08831555101827,6917.906,95.438,540.919,538.624,0.0
50831.0,STARLINK-3299,PAYLOAD,2023-10-31 14:25:41,15.08807276,0.0001296,53.2174,70.2738,65.1804,294.9323,-0.00042123,-6.979e-05,0.0,0 STARLINK-3299,1 50831U 22001AE  23304.60117127 -.00006979  00000-0 -42123-3 0  9997,2 50831  53.2174  70.2738 0001296  65.1804 294.9323 15.08807276100568,6917.98,95.44,540.742,538.949,0.0
